{
    "type": "FeatureCollection",
    "features": [
        {
            "type": "Feature",
            "properties": {
                "url": "<a target=\"_blank\" href=\"https://data.linz.govt.nz/services/csw?service=CSW&version=2.0.2&request=GetCapabilities\">LINZ Data Service</a>"
            },
            "geometry": {
                "type": "Point",
                "coordinates": [
                    174.776236,
                    -41.28646
                ]
            }
        },
        {
            "type": "Feature",
            "properties": {
                "url": "<a target=\"_blank\" href=\"https://www.pacioos.hawaii.edu/ogc/csw?service=CSW&version=2.0.2.&request=GetCapabilities\">Pacific Islands Ocean Observing System (PacIOOS)</a>"
            },
            "geometry": {
                "type": "Point",
                "coordinates": [
                    -157.8161,
                    21.2979
                ]
            }
        },
        {
            "type": "Feature",
            "properties": {
                "url": "<a target=\"_blank\" href=\"https://csw.eodc.eu/?service=CSW&version=2.0.2&request=GetCapabilities\">EODC Data Catalogue</a>"
            },
            "geometry": {
                "type": "Point",
                "coordinates": [
                    16.369543,
                    48.196017
                ]
            }
        },
        {
            "type": "Feature",
            "properties": {
                "url": "<a target=\"_blank\" href=\"https://api.bas.ac.uk/data/metadata/csw/v2/published?service=CSW&version=2.0.2&request=GetCapabilities\">Discovery Metadata System,<br/> British Antarctic Survey</a>"
            },
            "geometry": {
                "type": "Point",
                "coordinates": [
                    0.08,
                    52.213
                ]
            }
        },
        {
            "type": "Feature",
            "properties": {
                "url": "<a target=\"_blank\" href=\"https://catalog.opensciencedata.esa.int\">ESA Open Science Catalogue</a>"
            },
            "geometry": {
                "type": "Point",
                "coordinates": [
                    4.3859602,
                    50.8436923
                ]
            }
        },
        {
            "type": "Feature",
            "properties": {
                "url": "<a target=\"_blank\" href=\"https://catalogue.ejpsoil.eu\">European Joint Programme on Agricultural Soil Management</a>"
            },
            "geometry": {
                "type": "Point",
                "coordinates": [
                    5.666667,
                    51.966667
                ]
            }
        },
        {
            "type": "Feature",
            "properties": {
                "url": "<a target=\"_blank\" href=\"http://cigno.ve.ismar.cnr.it/catalogue/csw?service=CSW&version=2.0.2&request=GetCapabilities\">CIGNo data portal</a>"
            },
            "geometry": {
                "type": "Point",
                "coordinates": [
                    12.3155,
                    45.4408
                ]
            }
        },
        {
            "type": "Feature",
            "properties": {
                "url": "<a target=\"_blank\" href=\"https://geonode.igad.int/catalogue/csw?service=CSW&version=2.0.2&request=GetCapabilities\">IGAD Spatial Web Portal</a>"
            },
            "geometry": {
                "type": "Point",
                "coordinates": [
                    42.5903,
                    11.8251
                ]
            }
        },
        {
            "type": "Feature",
            "properties": {
                "url": "<a target=\"_blank\" href=\"https://www.riskinfo.lk/catalogue/csw?service=CSW&version=2.0.2&request=GetCapabilities\">Riskinfo</a>"
            },
            "geometry": {
                "type": "Point",
                "coordinates": [
                    79.84,
                    6.93
                ]
            }
        },
        {
            "type": "Feature",
            "properties": {
                "url": "<a target=\"_blank\" href=\"https://www.atlas.alpconv.org/catalogue/csw?service=CSW&version=2.0.2&request=GetCapabilities\">Alpine Convention Atlas</a>"
            },
            "geometry": {
                "type": "Point",
                "coordinates": [
                    11.391,
                    47.2675
                ]
            }
        },
        {
            "type": "Feature",
            "properties": {
                "url": "<a target=\"_blank\" href=\"https://geonode.dpc.neuquen.gov.ar/catalogue/csw?service=CSW&version=2.0.2&request=GetCapabilities\">Direcci\u00f3n de Catastro</a>"
            },
            "geometry": {
                "type": "Point",
                "coordinates": [
                    -68.0667,
                    -38.95
                ]
            }
        },
        {
            "type": "Feature",
            "properties": {
                "url": "<a target=\"_blank\" href=\"https://acma.africanmarineatlas.org/catalogue/csw?service=CSW&version=2.0.2&request=GetCapabilities\">African Coastal and Marine Atlas</a>"
            },
            "geometry": {
                "type": "Point",
                "coordinates": [
                    36.8219,
                    1.2921
                ]
            }
        },
        {
            "type": "Feature",
            "properties": {
                "url": "<a target=\"_blank\" href=\"https://nysmac-sios.csw.met.no?service=CSW&version=2.0.2&request=GetCapabilities\">NySMAC collection of the Svalbard Integrated Arctic Earth Observing System Catalogue Interface</a>"
            },
            "geometry": {
                "type": "Point",
                "coordinates": [
                    10.7313,
                    59.9122
                ]
            }
        },
        {
            "type": "Feature",
            "properties": {
                "url": "<a target=\"_blank\" href=\"https://tone-nordatanet.csw.met.no?service=CSW&version=2.0.2&request=GetCapabilities\">Troll Observing Network collection of the Norwegian Scientific Data Network Catalogue Interface</a>"
            },
            "geometry": {
                "type": "Point",
                "coordinates": [
                    10.7313,
                    59.9122
                ]
            }
        },
        {
            "type": "Feature",
            "properties": {
                "url": "<a target=\"_blank\" href=\"https://adc.csw.met.no?service=CSW&version=2.0.2&request=GetCapabilities\">Arctic Data Centre Catalogue Interface</a>"
            },
            "geometry": {
                "type": "Point",
                "coordinates": [
                    10.7313,
                    59.9122
                ]
            }
        },
        {
            "type": "Feature",
            "properties": {
                "url": "<a target=\"_blank\" href=\"https://nordatanet.csw.met.no?service=CSW&version=2.0.2&request=GetCapabilities\">Norwegian Scientific Data Network Catalogue Interface</a>"
            },
            "geometry": {
                "type": "Point",
                "coordinates": [
                    10.7313,
                    59.9122
                ]
            }
        },
        {
            "type": "Feature",
            "properties": {
                "url": "<a target=\"_blank\" href=\"http://sios.csw.met.no?service=CSW&version=2.0.2&request=GetCapabilities\">Svalbard Integrated Arctic Earth Observing System Catalogue Interface</a>"
            },
            "geometry": {
                "type": "Point",
                "coordinates": [
                    10.7313,
                    59.9122
                ]
            }
        },
        {
            "type": "Feature",
            "properties": {
                "url": "<a target=\"_blank\" href=\"https://nbs.csw.met.no?service=CSW&version=2.0.2&request=GetCapabilities\">Norwegian National Ground Segment for Satellite Data Catalogue Interface</a>"
            },
            "geometry": {
                "type": "Point",
                "coordinates": [
                    10.7313,
                    59.9122
                ]
            }
        },
        {
            "type": "Feature",
            "properties": {
                "url": "<a target=\"_blank\" href=\"https://gcw.csw.met.no?service=CSW&version=2.0.2&request=GetCapabilities\">GCW Catalogue Interface</a>"
            },
            "geometry": {
                "type": "Point",
                "coordinates": [
                    10.7313,
                    59.9122
                ]
            }
        },
        {
            "type": "Feature",
            "properties": {
                "url": "<a target=\"_blank\" href=\"https://cvl.csw.met.no?service=CSW&version=2.0.2&request=GetCapabilities\">ESA CVL Catalogue Interface</a>"
            },
            "geometry": {
                "type": "Point",
                "coordinates": [
                    10.7313,
                    59.9122
                ]
            }
        },
        {
            "type": "Feature",
            "properties": {
                "url": "<a target=\"_blank\" href=\"https://bluecloud-sios.csw.met.no?service=CSW&version=2.0.2&request=GetCapabilities\">SIOS - Blue Cloud endpoint</a>"
            },
            "geometry": {
                "type": "Point",
                "coordinates": [
                    10.7313,
                    59.9122
                ]
            }
        },
        {
            "type": "Feature",
            "properties": {
                "url": "<a target=\"_blank\" href=\"https://noiso-adc.csw.met.no?service=CSW&version=2.0.2&request=GetCapabilities\">noiso-adc endpoint</a>"
            },
            "geometry": {
                "type": "Point",
                "coordinates": [
                    10.7313,
                    59.9122
                ]
            }
        },
        {
            "type": "Feature",
            "properties": {
                "url": "<a target=\"_blank\" href=\"https://nmdc.csw.met.no?service=CSW&version=2.0.2&request=GetCapabilities\">Norwegian Meteorological Institute - NMDC node</a>"
            },
            "geometry": {
                "type": "Point",
                "coordinates": [
                    10.7313,
                    59.9122
                ]
            }
        },
        {
            "type": "Feature",
            "properties": {
                "url": "<a target=\"_blank\" href=\"https://polarin-sios.csw.met.no?service=CSW&version=2.0.2&request=GetCapabilities\">POLARIN metadata catalogue endpoint</a>"
            },
            "geometry": {
                "type": "Point",
                "coordinates": [
                    10.7313,
                    59.9122
                ]
            }
        },
        {
            "type": "Feature",
            "properties": {
                "url": "<a target=\"_blank\" href=\"https://arcticobserving.csw.met.no?service=CSW&version=2.0.2&request=GetCapabilities\">SAON/Arctic observing system catalogue Interface</a>"
            },
            "geometry": {
                "type": "Point",
                "coordinates": [
                    10.7313,
                    59.9122
                ]
            }
        }
    ]
}